{
    "links": {
        "self": "http://www.neowsapp.com/rest/v1/neo/3684631?api_key=iIulBulltgU6a56xZRHN4H3l9WmuAYTsLGpBGhQ2"
    },
    "id": "3684631",
    "neo_reference_id": "3684631",
    "name": "(2014 QR363)",
    "designation": "2014 QR363",
    "nasa_jpl_url": "http://ssd.jpl.nasa.gov/sbdb.cgi?sstr=3684631",
    "absolute_magnitude_h": 24.8,
    "estimated_diameter": {
        "kilometers": {
            "estimated_diameter_min": 0.0291443905,
            "estimated_diameter_max": 0.0651688382
        },
        "meters": {
            "estimated_diameter_min": 29.1443904535,
            "estimated_diameter_max": 65.1688382168
        },
        "miles": {
            "estimated_diameter_min": 0.018109479,
            "estimated_diameter_max": 0.0404940262
        },
        "feet": {
            "estimated_diameter_min": 95.6180819754,
            "estimated_diameter_max": 213.8085311752
        }
    },
    "is_potentially_hazardous_asteroid": false,
    "close_approach_data": [
        {
            "close_approach_date": "2009-08-17",
            "close_approach_date_full": "2009-Aug-17 15:09",
            "epoch_date_close_approach": 1250521740000,
            "relative_velocity": {
                "kilometers_per_second": "8.0836718322",
                "kilometers_per_hour": "29101.2185958766",
                "miles_per_hour": "18082.3655214212"
            },
            "miss_distance": {
                "astronomical": "0.1648327634",
                "lunar": "64.1199449626",
                "kilometers": "24658630.310853958",
                "miles": "15322162.3770543004"
            },
            "orbiting_body": "Earth"
        },
        {
            "close_approach_date": "2014-08-24",
            "close_approach_date_full": "2014-Aug-24 02:42",
            "epoch_date_close_approach": 1408848120000,
            "relative_velocity": {
                "kilometers_per_second": "7.5302545716",
                "kilometers_per_hour": "27108.9164576075",
                "miles_per_hour": "16844.4264511173"
            },
            "miss_distance": {
                "astronomical": "0.0980423831",
                "lunar": "38.1384870259",
                "kilometers": "14666931.681483997",
                "miles": "9113608.7432212786"
            },
            "orbiting_body": "Earth"
        },
        {
            "close_approach_date": "2019-08-30",
            "close_approach_date_full": "2019-Aug-30 10:37",
            "epoch_date_close_approach": 1567161420000,
            "relative_velocity": {
                "kilometers_per_second": "7.6796608578",
                "kilometers_per_hour": "27646.7790880873",
                "miles_per_hour": "17178.6333728174"
            },
            "miss_distance": {
                "astronomical": "0.1322895286",
                "lunar": "51.4606266254",
                "kilometers": "19790231.701864082",
                "miles": "12297079.7563730516"
            },
            "orbiting_body": "Earth"
        }
    ],
    "orbital_data": {
        "orbit_id": "5",
        "orbit_determination_date": "2017-04-06 08:39:02",
        "first_observation_date": "2014-08-27",
        "last_observation_date": "2014-09-03",
        "data_arc_in_days": 7,
        "observations_used": 16,
        "orbit_uncertainty": "8",
        "minimum_orbit_intersection": ".0960108",
        "jupiter_tisserand_invariant": "5.408",
        "epoch_osculation": "2456898.5",
        "eccentricity": ".0436533818672955",
        "semi_major_axis": "1.157243822110976",
        "inclination": "14.71859613146066",
        "ascending_node_longitude": "332.4020819183603",
        "orbital_period": "454.7112857708382",
        "perihelion_distance": "1.106726215630797",
        "perihelion_argument": "3.502537163774427",
        "aphelion_distance": "1.207761428591155",
        "perihelion_time": "2456900.766561682344",
        "mean_anomaly": "358.2055378188808",
        "mean_motion": ".7917111610496291",
        "equinox": "J2000",
        "orbit_class": {
            "orbit_class_type": "AMO",
            "orbit_class_description": "Near-Earth asteroid orbits similar to that of 1221 Amor",
            "orbit_class_range": "1.017 AU < q (perihelion) < 1.3 AU"
        }
    },
    "is_sentry_object": false
}